{"spkid": "50740951", "covariance": {"epoch": "2457632.5", "elements": [{"label": "e", "sigma": 1.80757593930322e-08, "name": "e", "title": "eccentricity", "value": ".6682310599899289", "units": null}, {"label": "q", "units": "au", "value": ".9454684292888447", "title": "perihelion distance", "sigma": 5.0452118700113e-08, "name": "q"}, {"units": "TDB", "title": "time of perihelion passage", "value": "2457465.102736208936", "sigma": 1.09404925909689e-05, "name": "tp", "label": "tp"}, {"title": "longitude of the ascending node", "value": "137.3992637138236", "units": "deg", "name": "om", "sigma": 1.17647499263849e-05, "label": "node"}, {"title": "argument of perihelion", "value": "32.19405074522151", "units": "deg", "sigma": 1.30066796687762e-05, "name": "w", "label": "peri"}, {"label": "i", "units": "deg", "value": "31.34321306490084", "title": "inclination", "sigma": 1.02560885973383e-05, "name": "i"}], "data": [["3.26733077634792E-16", "-8.875586991638396E-16", "4.015334499267808E-14", "-1.61528132465736E-15", "2.690048481242191E-14", "-9.502836717304356E-15"], ["-8.875586991638396E-16", "2.545416281330293E-15", "-1.282893576422733E-13", "-4.197024511172832E-15", "-7.463077768652717E-14", "3.428022879387324E-14"], ["4.015334499267808E-14", "-1.282893576422733E-13", "1.196943781330462E-10", "9.169512629793941E-12", "8.395415348840146E-11", "-2.665982427594989E-11"], ["-1.61528132465736E-15", "-4.197024511172832E-15", "9.169512629793941E-12", "1.384093408303734E-10", "-1.063572700599619E-10", "-8.121100534041206E-11"], ["2.690048481242191E-14", "-7.463077768652717E-14", "8.395415348840146E-11", "-1.063572700599619E-10", "1.691737160061553E-10", "4.452883193524002E-11"], ["-9.502836717304356E-15", "3.428022879387324E-14", "-2.665982427594989E-11", "-8.121100534041206E-11", "4.452883193524002E-11", "1.051873533164537E-10"]], "labels": ["e", "q", "tp", "node", "peri", "i"]}, "elements": [{"sigma": "1.8144E-8", "name": "e", "title": "eccentricity", "value": ".6655031929872181", "units": null, "label": "e"}, {"units": "au", "title": "semi-major axis", "value": "2.86225973658519", "sigma": "3.3621E-8", "name": "a", "label": "a"}, {"label": "q", "units": "au", "title": "perihelion distance", "value": ".9574167427289925", "sigma": "5.0382E-8", "name": "q"}, {"name": "i", "sigma": "1.027E-5", "units": "deg", "value": "31.1584038246224", "title": "inclination; angle with respect to x-y ecliptic plane", "label": "i"}, {"label": "node", "name": "om", "sigma": "1.1751E-5", "units": "deg", "title": "longitude of the ascending node", "value": "137.2440126547162"}, {"sigma": "1.3076E-5", "name": "w", "units": "deg", "value": "32.40405908667087", "title": "argument of perihelion", "label": "peri"}, {"label": "M", "name": "ma", "sigma": "1.3935E-5", "units": "deg", "value": "43.30447675373775", "title": "mean anomaly"}, {"sigma": "6.4744E-5", "name": "tp", "value": "2460987.738872278555", "title": "time of perihelion passage", "units": "TDB", "label": "tp"}, {"label": "period", "title": "sidereal orbital period", "value": "1768.731819929195", "units": "d", "sigma": "3.1164E-5", "name": "per"}, {"label": "n", "name": "n", "sigma": "3.5862E-9", "units": "deg/d", "value": ".2035356609428846", "title": "mean motion"}, {"label": "Q", "sigma": "5.5996E-8", "name": "ad", "units": "au", "title": "aphelion distance", "value": "4.767102730441388"}], "epoch": "2461200.5"}